[{"OBJECT_NAME":"ONEWEB-0646","OBJECT_ID":"2023-029Q","EPOCH":"2026-01-19T07:18:40.681728","MEAN_MOTION":13.19726787,"ECCENTRICITY":0.00014591,"INCLINATION":87.9234,"RA_OF_ASC_NODE":334.6066,"ARG_OF_PERICENTER":79.886,"MEAN_ANOMALY":280.2437,"EPHEMERIS_TYPE":0,"CLASSIFICATION_TYPE":"U","NORAD_CAT_ID":55810,"ELEMENT_SET_NO":999,"REV_AT_EPOCH":13925,"BSTAR":6.7648458e-5,"MEAN_MOTION_DOT":4.0e-7,"MEAN_MOTION_DDOT":0},{"OBJECT_NAME":"ONEWEB-0648","OBJECT_ID":"2023-029R","EPOCH":"2026-01-19T07:15:01.900512","MEAN_MOTION":13.14504237,"ECCENTRICITY":0.00011708,"INCLINATION":87.9031,"RA_OF_ASC_NODE":319.3757,"ARG_OF_PERICENTER":42.9854,"MEAN_ANOMALY":317.1367,"EPHEMERIS_TYPE":0,"CLASSIFICATION_TYPE":"U","NORAD_CAT_ID":55811,"ELEMENT_SET_NO":999,"REV_AT_EPOCH":13983,"BSTAR":-0.00013322511,"MEAN_MOTION_DOT":-3.7e-7,"MEAN_MOTION_DDOT":0},{"OBJECT_NAME":"ONEWEB-0649","OBJECT_ID":"2023-029S","EPOCH":"2026-01-19T02:27:32.949216","MEAN_MOTION":13.19725369,"ECCENTRICITY":0.00014179,"INCLINATION":87.9236,"RA_OF_ASC_NODE":334.6434,"ARG_OF_PERICENTER":69.1355,"MEAN_ANOMALY":290.993,"EPHEMERIS_TYPE":0,"CLASSIFICATION_TYPE":"U","NORAD_CAT_ID":55812,"ELEMENT_SET_NO":999,"REV_AT_EPOCH":13926,"BSTAR":-0.00015164503,"MEAN_MOTION_DOT":-4.8e-7,"MEAN_MOTION_DDOT":0},{"OBJECT_NAME":"ONEWEB-0650","OBJECT_ID":"2023-029T","EPOCH":"2026-01-19T05:59:04.178688","MEAN_MOTION":13.19726977,"ECCENTRICITY":0.00012667,"INCLINATION":87.9233,"RA_OF_ASC_NODE":334.6186,"ARG_OF_PERICENTER":73.6234,"MEAN_ANOMALY":286.5037,"EPHEMERIS_TYPE":0,"CLASSIFICATION_TYPE":"U","NORAD_CAT_ID":55813,"ELEMENT_SET_NO":999,"REV_AT_EPOCH":13925,"BSTAR":9.2489295e-5,"MEAN_MOTION_DOT":5.0e-7,"MEAN_MOTION_DDOT":0},{"OBJECT_NAME":"ONEWEB-0652","OBJECT_ID":"2023-029U","EPOCH":"2026-01-19T06:47:39.164352","MEAN_MOTION":13.1450339,"ECCENTRICITY":0.00018534,"INCLINATION":87.9023,"RA_OF_ASC_NODE":319.3983,"ARG_OF_PERICENTER":80.2327,"MEAN_ANOMALY":279.9012,"EPHEMERIS_TYPE":0,"CLASSIFICATION_TYPE":"U","NORAD_CAT_ID":55814,"ELEMENT_SET_NO":999,"REV_AT_EPOCH":13980,"BSTAR":0.00064682651,"MEAN_MOTION_DOT":2.53e-6,"MEAN_MOTION_DDOT":0},{"OBJECT_NAME":"ONEWEB-0653","OBJECT_ID":"2023-029V","EPOCH":"2026-01-19T06:24:48.917376","MEAN_MOTION":13.14503526,"ECCENTRICITY":0.00018705,"INCLINATION":87.9025,"RA_OF_ASC_NODE":319.391,"ARG_OF_PERICENTER":74.4147,"MEAN_ANOMALY":285.719,"EPHEMERIS_TYPE":0,"CLASSIFICATION_TYPE":"U","NORAD_CAT_ID":55815,"ELEMENT_SET_NO":999,"REV_AT_EPOCH":13983,"BSTAR":0.00060411432,"MEAN_MOTION_DOT":2.37e-6,"MEAN_MOTION_DDOT":0},{"OBJECT_NAME":"ONEWEB-0654","OBJECT_ID":"2023-029W","EPOCH":"2026-01-19T06:17:57.563520","MEAN_MOTION":13.14503651,"ECCENTRICITY":0.00020712,"INCLINATION":87.9026,"RA_OF_ASC_NODE":319.3919,"ARG_OF_PERICENTER":80.4124,"MEAN_ANOMALY":279.724,"EPHEMERIS_TYPE":0,"CLASSIFICATION_TYPE":"U","NORAD_CAT_ID":55816,"ELEMENT_SET_NO":999,"REV_AT_EPOCH":13985,"BSTAR":0.0004852709,"MEAN_MOTION_DOT":1.93e-6,"MEAN_MOTION_DDOT":0},{"OBJECT_NAME":"ONEWEB-0656","OBJECT_ID":"2023-029X","EPOCH":"2026-01-19T06:23:23.601696","MEAN_MOTION":13.20772534,"ECCENTRICITY":0.0002106,"INCLINATION":87.9236,"RA_OF_ASC_NODE":304.1387,"ARG_OF_PERICENTER":79.9219,"MEAN_ANOMALY":280.2152,"EPHEMERIS_TYPE":0,"CLASSIFICATION_TYPE":"U","NORAD_CAT_ID":55817,"ELEMENT_SET_NO":999,"REV_AT_EPOCH":14149,"BSTAR":0.00026011756,"MEAN_MOTION_DOT":1.19e-6,"MEAN_MOTION_DDOT":0},{"OBJECT_NAME":"ONEWEB-0657","OBJECT_ID":"2023-029Y","EPOCH":"2026-01-19T04:03:02.526336","MEAN_MOTION":13.19720211,"ECCENTRICITY":0.00020385,"INCLINATION":87.9226,"RA_OF_ASC_NODE":334.6347,"ARG_OF_PERICENTER":100.4379,"MEAN_ANOMALY":259.6984,"EPHEMERIS_TYPE":0,"CLASSIFICATION_TYPE":"U","NORAD_CAT_ID":55818,"ELEMENT_SET_NO":999,"REV_AT_EPOCH":13925,"BSTAR":-1.7331325e-5,"MEAN_MOTION_DOT":6.0e-8,"MEAN_MOTION_DDOT":0},{"OBJECT_NAME":"ONEWEB-0658","OBJECT_ID":"2023-029Z","EPOCH":"2026-01-19T07:34:36.193152","MEAN_MOTION":13.19725305,"ECCENTRICITY":0.00013135,"INCLINATION":87.9244,"RA_OF_ASC_NODE":334.5657,"ARG_OF_PERICENTER":79.4754,"MEAN_ANOMALY":280.6527,"EPHEMERIS_TYPE":0,"CLASSIFICATION_TYPE":"U","NORAD_CAT_ID":55819,"ELEMENT_SET_NO":999,"REV_AT_EPOCH":13928,"BSTAR":8.8516131e-5,"MEAN_MOTION_DOT":4.8e-7,"MEAN_MOTION_DDOT":0},{"OBJECT_NAME":"ONEWEB-0660","OBJECT_ID":"2023-029AA","EPOCH":"2026-01-19T05:45:59.709888","MEAN_MOTION":13.14502548,"ECCENTRICITY":0.00016936,"INCLINATION":87.9033,"RA_OF_ASC_NODE":319.378,"ARG_OF_PERICENTER":67.3859,"MEAN_ANOMALY":292.745,"EPHEMERIS_TYPE":0,"CLASSIFICATION_TYPE":"U","NORAD_CAT_ID":55820,"ELEMENT_SET_NO":999,"REV_AT_EPOCH":13983,"BSTAR":-0.00049677395,"MEAN_MOTION_DOT":-1.71e-6,"MEAN_MOTION_DDOT":0},{"OBJECT_NAME":"ONEWEB-0661","OBJECT_ID":"2023-029AB","EPOCH":"2026-01-19T06:36:14.631840","MEAN_MOTION":13.14502592,"ECCENTRICITY":0.00017937,"INCLINATION":87.9021,"RA_OF_ASC_NODE":319.4331,"ARG_OF_PERICENTER":67.6283,"MEAN_ANOMALY":292.5036,"EPHEMERIS_TYPE":0,"CLASSIFICATION_TYPE":"U","NORAD_CAT_ID":55821,"ELEMENT_SET_NO":999,"REV_AT_EPOCH":13982,"BSTAR":0.00081386137,"MEAN_MOTION_DOT":3.15e-6,"MEAN_MOTION_DDOT":0},{"OBJECT_NAME":"ONEWEB-0662","OBJECT_ID":"2023-029AC","EPOCH":"2026-01-19T07:26:27.068064","MEAN_MOTION":13.14504028,"ECCENTRICITY":0.0001645,"INCLINATION":87.9024,"RA_OF_ASC_NODE":319.4326,"ARG_OF_PERICENTER":66.5816,"MEAN_ANOMALY":293.5487,"EPHEMERIS_TYPE":0,"CLASSIFICATION_TYPE":"U","NORAD_CAT_ID":55822,"ELEMENT_SET_NO":999,"REV_AT_EPOCH":13987,"BSTAR":-0.00033039636,"MEAN_MOTION_DOT":-1.1e-6,"MEAN_MOTION_DDOT":0},{"OBJECT_NAME":"ONEWEB-0663","OBJECT_ID":"2023-029AD","EPOCH":"2026-01-19T07:27:20.287008","MEAN_MOTION":13.20857043,"ECCENTRICITY":0.0001419,"INCLINATION":87.9244,"RA_OF_ASC_NODE":304.1993,"ARG_OF_PERICENTER":62.128,"MEAN_ANOMALY":297.9997,"EPHEMERIS_TYPE":0,"CLASSIFICATION_TYPE":"U","NORAD_CAT_ID":55823,"ELEMENT_SET_NO":999,"REV_AT_EPOCH":14149,"BSTAR":0.00022958171,"MEAN_MOTION_DOT":1.06e-6,"MEAN_MOTION_DDOT":0},{"OBJECT_NAME":"ONEWEB-0664","OBJECT_ID":"2023-029AE","EPOCH":"2026-01-19T06:05:11.912640","MEAN_MOTION":13.20773202,"ECCENTRICITY":0.00019883,"INCLINATION":87.9226,"RA_OF_ASC_NODE":304.2102,"ARG_OF_PERICENTER":68.8067,"MEAN_ANOMALY":291.3279,"EPHEMERIS_TYPE":0,"CLASSIFICATION_TYPE":"U","NORAD_CAT_ID":55824,"ELEMENT_SET_NO":999,"REV_AT_EPOCH":14148,"BSTAR":5.3647019e-5,"MEAN_MOTION_DOT":3.5e-7,"MEAN_MOTION_DDOT":0},{"OBJECT_NAME":"ONEWEB-0665","OBJECT_ID":"2023-029AF","EPOCH":"2026-01-19T06:31:40.165824","MEAN_MOTION":13.14503335,"ECCENTRICITY":0.0001582,"INCLINATION":87.9028,"RA_OF_ASC_NODE":319.4127,"ARG_OF_PERICENTER":66.6727,"MEAN_ANOMALY":293.4569,"EPHEMERIS_TYPE":0,"CLASSIFICATION_TYPE":"U","NORAD_CAT_ID":55825,"ELEMENT_SET_NO":999,"REV_AT_EPOCH":13984,"BSTAR":0.00069139943,"MEAN_MOTION_DOT":2.69e-6,"MEAN_MOTION_DDOT":0},{"OBJECT_NAME":"ONEWEB-0666","OBJECT_ID":"2023-029AG","EPOCH":"2026-01-19T05:56:06.670752","MEAN_MOTION":13.20771954,"ECCENTRICITY":0.00020096,"INCLINATION":87.9226,"RA_OF_ASC_NODE":304.2011,"ARG_OF_PERICENTER":97.0498,"MEAN_ANOMALY":263.0864,"EPHEMERIS_TYPE":0,"CLASSIFICATION_TYPE":"U","NORAD_CAT_ID":55826,"ELEMENT_SET_NO":999,"REV_AT_EPOCH":14149,"BSTAR":-9.3844828e-5,"MEAN_MOTION_DOT":-2.5e-7,"MEAN_MOTION_DDOT":0},{"OBJECT_NAME":"ONEWEB-0667","OBJECT_ID":"2023-029AH","EPOCH":"2026-01-19T05:47:01.660416","MEAN_MOTION":13.2077193,"ECCENTRICITY":0.00016932,"INCLINATION":87.9237,"RA_OF_ASC_NODE":304.1388,"ARG_OF_PERICENTER":69.4426,"MEAN_ANOMALY":290.6889,"EPHEMERIS_TYPE":0,"CLASSIFICATION_TYPE":"U","NORAD_CAT_ID":55827,"ELEMENT_SET_NO":999,"REV_AT_EPOCH":14148,"BSTAR":-8.0825919e-5,"MEAN_MOTION_DOT":-2.0e-7,"MEAN_MOTION_DDOT":0},{"OBJECT_NAME":"ONEWEB-0669","OBJECT_ID":"2023-029AJ","EPOCH":"2026-01-19T07:29:18.013920","MEAN_MOTION":13.20771338,"ECCENTRICITY":0.00023258,"INCLINATION":87.9224,"RA_OF_ASC_NODE":304.1547,"ARG_OF_PERICENTER":77.0532,"MEAN_ANOMALY":283.0861,"EPHEMERIS_TYPE":0,"CLASSIFICATION_TYPE":"U","NORAD_CAT_ID":55828,"ELEMENT_SET_NO":999,"REV_AT_EPOCH":14149,"BSTAR":4.7321215e-5,"MEAN_MOTION_DOT":3.2e-7,"MEAN_MOTION_DDOT":0},{"OBJECT_NAME":"ONEWEB-0670","OBJECT_ID":"2023-029AK","EPOCH":"2026-01-19T05:59:41.094816","MEAN_MOTION":13.14502368,"ECCENTRICITY":0.00019161,"INCLINATION":87.9026,"RA_OF_ASC_NODE":319.4364,"ARG_OF_PERICENTER":67.0887,"MEAN_ANOMALY":293.0445,"EPHEMERIS_TYPE":0,"CLASSIFICATION_TYPE":"U","NORAD_CAT_ID":55829,"ELEMENT_SET_NO":999,"REV_AT_EPOCH":13986,"BSTAR":-0.00039012855,"MEAN_MOTION_DOT":-1.32e-6,"MEAN_MOTION_DDOT":0},{"OBJECT_NAME":"ONEWEB-0671","OBJECT_ID":"2023-029AL","EPOCH":"2026-01-19T07:27:46.918944","MEAN_MOTION":13.19725244,"ECCENTRICITY":0.00017146,"INCLINATION":87.9233,"RA_OF_ASC_NODE":334.6054,"ARG_OF_PERICENTER":74.0472,"MEAN_ANOMALY":286.085,"EPHEMERIS_TYPE":0,"CLASSIFICATION_TYPE":"U","NORAD_CAT_ID":55830,"ELEMENT_SET_NO":999,"REV_AT_EPOCH":13926,"BSTAR":3.9488047e-5,"MEAN_MOTION_DOT":2.9e-7,"MEAN_MOTION_DDOT":0},{"OBJECT_NAME":"ONEWEB-0672","OBJECT_ID":"2023-029AM","EPOCH":"2026-01-19T05:33:23.462784","MEAN_MOTION":13.2077228,"ECCENTRICITY":0.00018722,"INCLINATION":87.9231,"RA_OF_ASC_NODE":304.1532,"ARG_OF_PERICENTER":82.4378,"MEAN_ANOMALY":277.6968,"EPHEMERIS_TYPE":0,"CLASSIFICATION_TYPE":"U","NORAD_CAT_ID":55831,"ELEMENT_SET_NO":999,"REV_AT_EPOCH":14148,"BSTAR":2.6512936e-5,"MEAN_MOTION_DOT":2.4e-7,"MEAN_MOTION_DDOT":0},{"OBJECT_NAME":"ONEWEB-0673","OBJECT_ID":"2023-029AN","EPOCH":"2026-01-19T06:54:48.141216","MEAN_MOTION":13.19725516,"ECCENTRICITY":0.00018085,"INCLINATION":87.9247,"RA_OF_ASC_NODE":334.5939,"ARG_OF_PERICENTER":75.4022,"MEAN_ANOMALY":284.7312,"EPHEMERIS_TYPE":0,"CLASSIFICATION_TYPE":"U","NORAD_CAT_ID":55832,"ELEMENT_SET_NO":999,"REV_AT_EPOCH":13926,"BSTAR":0.00024157473,"MEAN_MOTION_DOT":1.1e-6,"MEAN_MOTION_DDOT":0}]
